[{"OBJECT_NAME":"EDISON-1","OBJECT_ID":"2025-009B","EPOCH":"2026-03-09T19:16:13.822464","MEAN_MOTION":15.29042904,"ECCENTRICITY":0.00043285,"INCLINATION":97.4042,"RA_OF_ASC_NODE":151.6286,"ARG_OF_PERICENTER":306.4185,"MEAN_ANOMALY":53.6655,"EPHEMERIS_TYPE":0,"CLASSIFICATION_TYPE":"U","NORAD_CAT_ID":62610,"ELEMENT_SET_NO":999,"REV_AT_EPOCH":6375,"BSTAR":0.00052814963,"MEAN_MOTION_DOT":0.00014835,"MEAN_MOTION_DDOT":0},{"OBJECT_NAME":"STARLINK-35358","OBJECT_ID":"2025-268H","EPOCH":"2026-03-09T04:19:45.468768","MEAN_MOTION":15.27581703,"ECCENTRICITY":0.00017583,"INCLINATION":43.0022,"RA_OF_ASC_NODE":349.7872,"ARG_OF_PERICENTER":257.8104,"MEAN_ANOMALY":102.2551,"EPHEMERIS_TYPE":0,"CLASSIFICATION_TYPE":"U","NORAD_CAT_ID":66564,"ELEMENT_SET_NO":999,"REV_AT_EPOCH":1788,"BSTAR":0.0012274192,"MEAN_MOTION_DOT":0.0003367,"MEAN_MOTION_DDOT":0}]
